{"type": "FeatureCollection", "features": [ {"type": "Feature", "properties": {"norad_id": 30756, "name": "FENGYUN 1C DEB", "group": "fengyun-1c-debris", "lat": -61.3389030274574, "lon": 60.774279504488305, "alt_km": 804.5207788373236, "timestamp": "2025-12-02T15:49:07.468458+00:00", "meta": {"OBJECT_NAME": "FENGYUN 1C DEB", "OBJECT_ID": "1999-025ATS", "EPOCH": "2025-12-01T03:07:39.959904", "MEAN_MOTION": 14.18173809, "ECCENTRICITY": 0.00708233, "INCLINATION": 98.9924, "RA_OF_ASC_NODE": 42.3861, "ARG_OF_PERICENTER": 350.1374, "MEAN_ANOMALY": 67.0548, "EPHEMERIS_TYPE": 0, "CLASSIFICATION_TYPE": "U", "NORAD_CAT_ID": 30756, "ELEMENT_SET_NO": 999, "REV_AT_EPOCH": 96240, "BSTAR": 0.0014052244, "MEAN_MOTION_DOT": 2.914e-05, "MEAN_MOTION_DDOT": 0}, "tle": {"line1": "1 30756U 99025ATS 25335.13032361  .00002914  00000+0  14052-2 0  9992", "line2": "2 30756  98.9924  42.3861 0070823 350.1374  67.0548 14.18173809962404"}}, "geometry": {"type": "Point", "coordinates": [60.774279504488305, -61.3389030274574]}}, {"type": "Feature", "properties": {"norad_id": 30758, "name": "FENGYUN 1C DEB", "group": "fengyun-1c-debris", "lat": 12.414089407984552, "lon": 93.20761988213029, "alt_km": 810.2598696755776, "timestamp": "2025-12-02T15:49:07.468469+00:00", "meta": {"OBJECT_NAME": "FENGYUN 1C DEB", "OBJECT_ID": "1999-025ATU", "EPOCH": "2025-12-02T00:45:07.388928", "MEAN_MOTION": 14.17036331, "ECCENTRICITY": 0.00387728, "INCLINATION": 99.0183, "RA_OF_ASC_NODE": 94.5746, "ARG_OF_PERICENTER": 34.6148, "MEAN_ANOMALY": 17.495, "EPHEMERIS_TYPE": 0, "CLASSIFICATION_TYPE": "U", "NORAD_CAT_ID": 30758, "ELEMENT_SET_NO": 999, "REV_AT_EPOCH": 96339, "BSTAR": 0.0011880992, "MEAN_MOTION_DOT": 2.362e-05, "MEAN_MOTION_DDOT": 0}, "tle": {"line1": "1 30758U 99025ATU 25336.03133552  .00002362  00000+0  11881-2 0  9992", "line2": "2 30758  99.0183  94.5746 0038772  34.6148  17.4950 14.17036331963398"}}, "geometry": {"type": "Point", "coordinates": [93.20761988213029, 12.414089407984552]}}, {"type": "Feature", "properties": {"norad_id": 30759, "name": "FENGYUN 1C DEB", "group": "fengyun-1c-debris", "lat": 18.775032204981642, "lon": -93.46902456961872, "alt_km": 706.4965057996751, "timestamp": "2025-12-02T15:49:07.468479+00:00", "meta": {"OBJECT_NAME": "FENGYUN 1C DEB", "OBJECT_ID": "1999-025ATV", "EPOCH": "2025-12-02T05:27:52.722720", "MEAN_MOTION": 14.54128958, "ECCENTRICITY": 0.00096895, "INCLINATION": 99.2567, "RA_OF_ASC_NODE": 82.8762, "ARG_OF_PERICENTER": 193.4261, "MEAN_ANOMALY": 230.3437, "EPHEMERIS_TYPE": 0, "CLASSIFICATION_TYPE": "U", "NORAD_CAT_ID": 30759, "ELEMENT_SET_NO": 999, "REV_AT_EPOCH": 97502, "BSTAR": 0.003277457, "MEAN_MOTION_DOT": 0.00013836, "MEAN_MOTION_DDOT": 0}, "tle": {"line1": "1 30759U 99025ATV 25336.22769355  .00013836  00000+0  32775-2 0  9993", "line2": "2 30759  99.2567  82.8762 0009689 193.4261 230.3437 14.54128958975027"}}, "geometry": {"type": "Point", "coordinates": [-93.46902456961872, 18.775032204981642]}}, {"type": "Feature", "properties": {"norad_id": 30760, "name": "FENGYUN 1C DEB", "group": "fengyun-1c-debris", "lat": -1.3806596961824522, "lon": 153.40052401821845, "alt_km": 917.042800657322, "timestamp": "2025-12-02T15:49:07.468490+00:00", "meta": {"OBJECT_NAME": "FENGYUN 1C DEB", "OBJECT_ID": "1999-025ATW", "EPOCH": "2025-12-01T23:34:46.606368", "MEAN_MOTION": 14.05167336, "ECCENTRICITY": 0.00533024, "INCLINATION": 98.8221, "RA_OF_ASC_NODE": 332.9569, "ARG_OF_PERICENTER": 13.6673, "MEAN_ANOMALY": 346.5924, "EPHEMERIS_TYPE": 0, "CLASSIFICATION_TYPE": "U", "NORAD_CAT_ID": 30760, "ELEMENT_SET_NO": 999, "REV_AT_EPOCH": 96071, "BSTAR": 0.00032106591, "MEAN_MOTION_DOT": 4.82e-06, "MEAN_MOTION_DDOT": 0}, "tle": {"line1": "1 30760U 99025ATW 25335.98248387  .00000482  00000+0  32107-3 0  9997", "line2": "2 30760  98.8221 332.9569 0053302  13.6673 346.5924 14.05167336960716"}}, "geometry": {"type": "Point", "coordinates": [153.40052401821845, -1.3806596961824522]}}, {"type": "Feature", "properties": {"norad_id": 30761, "name": "FENGYUN 1C DEB", "group": "fengyun-1c-debris", "lat": -78.21996974026563, "lon": 33.15889465674581, "alt_km": 770.2615908227235, "timestamp": "2025-12-02T15:49:07.468500+00:00", "meta": {"OBJECT_NAME": "FENGYUN 1C DEB", "OBJECT_ID": "1999-025ATX", "EPOCH": "2025-12-02T01:12:49.007808", "MEAN_MOTION": 14.35655819, "ECCENTRICITY": 0.00853197, "INCLINATION": 98.9644, "RA_OF_ASC_NODE": 261.7184, "ARG_OF_PERICENTER": 345.2281, "MEAN_ANOMALY": 14.6412, "EPHEMERIS_TYPE": 0, "CLASSIFICATION_TYPE": "U", "NORAD_CAT_ID": 30761, "ELEMENT_SET_NO": 999, "REV_AT_EPOCH": 97588, "BSTAR": 0.0013418271, "MEAN_MOTION_DOT": 3.989e-05, "MEAN_MOTION_DDOT": 0}, "tle": {"line1": "1 30761U 99025ATX 25336.05056722  .00003989  00000+0  13418-2 0  9995", "line2": "2 30761  98.9644 261.7184 0085319 345.2281  14.6412 14.35655819975881"}}, "geometry": {"type": "Point", "coordinates": [33.15889465674581, -78.21996974026563]}}, {"type": "Feature", "properties": {"norad_id": 30762, "name": "FENGYUN 1C DEB", "group": "fengyun-1c-debris", "lat": 2.3121757074190192, "lon": -32.58859478702484, "alt_km": 790.426849716534, "timestamp": "2025-12-02T15:49:07.468511+00:00", "meta": {"OBJECT_NAME": "FENGYUN 1C DEB", "OBJECT_ID": "1999-025ATY", "EPOCH": "2025-12-01T22:53:41.949600", "MEAN_MOTION": 13.98059993, "ECCENTRICITY": 0.01982722, "INCLINATION": 98.8743, "RA_OF_ASC_NODE": 327.0906, "ARG_OF_PERICENTER": 325.0005, "MEAN_ANOMALY": 88.9159, "EPHEMERIS_TYPE": 0, "CLASSIFICATION_TYPE": "U", "NORAD_CAT_ID": 30762, "ELEMENT_SET_NO": 999, "REV_AT_EPOCH": 95487, "BSTAR": 0.00059620841, "MEAN_MOTION_DOT": 9.58e-06, "MEAN_MOTION_DDOT": 0}, "tle": {"line1": "1 30762U 99025ATY 25335.95395775  .00000958  00000+0  59621-3 0  9998", "line2": "2 30762  98.8743 327.0906 0198272 325.0005  88.9159 13.98059993954879"}}, "geometry": {"type": "Point", "coordinates": [-32.58859478702484, 2.3121757074190192]}}, {"type": "Feature", "properties": {"norad_id": 30763, "name": "FENGYUN 1C DEB", "group": "fengyun-1c-debris", "lat": 53.73750922393486, "lon": -120.39027844698609, "alt_km": 702.2247585382338, "timestamp": "2025-12-02T15:49:07.468522+00:00", "meta": {"OBJECT_NAME": "FENGYUN 1C DEB", "OBJECT_ID": "1999-025ATZ", "EPOCH": "2025-12-02T03:59:11.453856", "MEAN_MOTION": 14.60403244, "ECCENTRICITY": 0.00220787, "INCLINATION": 98.894, "RA_OF_ASC_NODE": 46.7553, "ARG_OF_PERICENTER": 300.452, "MEAN_ANOMALY": 114.3262, "EPHEMERIS_TYPE": 0, "CLASSIFICATION_TYPE": "U", "NORAD_CAT_ID": 30763, "ELEMENT_SET_NO": 999, "REV_AT_EPOCH": 96990, "BSTAR": 0.0048275973, "MEAN_MOTION_DOT": 0.00023475, "MEAN_MOTION_DDOT": 0}, "tle": {"line1": "1 30763U 99025ATZ 25336.16610479  .00023475  00000+0  48276-2 0  9996", "line2": "2 30763  98.8940  46.7553 0022078 300.4520 114.3262 14.60403244969902"}}, "geometry": {"type": "Point", "coordinates": [-120.39027844698609, 53.73750922393486]}}, {"type": "Feature", "properties": {"norad_id": 30764, "name": "FENGYUN 1C DEB", "group": "fengyun-1c-debris", "lat": 55.31316176792036, "lon": -67.36896299141657, "alt_km": 520.3895237840316, "timestamp": "2025-12-02T15:49:07.468532+00:00", "meta": {"OBJECT_NAME": "FENGYUN 1C DEB", "OBJECT_ID": "1999-025AUA", "EPOCH": "2025-12-01T15:59:46.305024", "MEAN_MOTION": 15.28072566, "ECCENTRICITY": 0.00758611, "INCLINATION": 98.7765, "RA_OF_ASC_NODE": 304.362, "ARG_OF_PERICENTER": 208.3139, "MEAN_ANOMALY": 151.3965, "EPHEMERIS_TYPE": 0, "CLASSIFICATION_TYPE": "U", "NORAD_CAT_ID": 30764, "ELEMENT_SET_NO": 999, "REV_AT_EPOCH": 1053, "BSTAR": 0.0010831455, "MEAN_MOTION_DOT": 0.00032317, "MEAN_MOTION_DDOT": 0}, "tle": {"line1": "1 30764U 99025AUA 25335.66650816  .00032317  00000+0  10831-2 0  9991", "line2": "2 30764  98.7765 304.3620 0075861 208.3139 151.3965 15.28072566 10536"}}, "geometry": {"type": "Point", "coordinates": [-67.36896299141657, 55.31316176792036]}}, {"type": "Feature", "properties": {"norad_id": 30765, "name": "FENGYUN 1C DEB", "group": "fengyun-1c-debris", "lat": -46.38777486926642, "lon": 32.15924776297145, "alt_km": 837.365645890538, "timestamp": "2025-12-02T15:49:07.468543+00:00", "meta": {"OBJECT_NAME": "FENGYUN 1C DEB", "OBJECT_ID": "1999-025AUB", "EPOCH": "2025-12-02T02:35:30.184800", "MEAN_MOTION": 14.14655624, "ECCENTRICITY": 0.00677474, "INCLINATION": 98.7891, "RA_OF_ASC_NODE": 22.2709, "ARG_OF_PERICENTER": 239.3826, "MEAN_ANOMALY": 147.6613, "EPHEMERIS_TYPE": 0, "CLASSIFICATION_TYPE": "U", "NORAD_CAT_ID": 30765, "ELEMENT_SET_NO": 999, "REV_AT_EPOCH": 96672, "BSTAR": 0.00095684167, "MEAN_MOTION_DOT": 1.837e-05, "MEAN_MOTION_DDOT": 0}, "tle": {"line1": "1 30765U 99025AUB 25336.10798825  .00001837  00000+0  95684-3 0  9998", "line2": "2 30765  98.7891  22.2709 0067747 239.3826 147.6613 14.14655624966727"}}, "geometry": {"type": "Point", "coordinates": [32.15924776297145, -46.38777486926642]}}, {"type": "Feature", "properties": {"norad_id": 30766, "name": "FENGYUN 1C DEB", "group": "fengyun-1c-debris", "lat": 15.865662033039163, "lon": -25.065464924533384, "alt_km": 857.5133082618022, "timestamp": "2025-12-02T15:49:07.468554+00:00", "meta": {"OBJECT_NAME": "FENGYUN 1C DEB", "OBJECT_ID": "1999-025AUC", "EPOCH": "2025-11-29T06:02:29.152320", "MEAN_MOTION": 14.0947949, "ECCENTRICITY": 0.0083655, "INCLINATION": 98.6728, "RA_OF_ASC_NODE": 334.1388, "ARG_OF_PERICENTER": 112.2766, "MEAN_ANOMALY": 264.9384, "EPHEMERIS_TYPE": 0, "CLASSIFICATION_TYPE": "U", "NORAD_CAT_ID": 30766, "ELEMENT_SET_NO": 999, "REV_AT_EPOCH": 62607, "BSTAR": 0.00061885465, "MEAN_MOTION_DOT": 1.075e-05, "MEAN_MOTION_DDOT": 0}, "tle": {"line1": "1 30766U 99025AUC 25333.25172630  .00001075  00000+0  61885-3 0  9992", "line2": "2 30766  98.6728 334.1388 0083655 112.2766 264.9384 14.09479490626070"}}, "geometry": {"type": "Point", "coordinates": [-25.065464924533384, 15.865662033039163]}}]}